ORBCOMM FM103           
1 40091U 14040F   24288.95989333  .00002077  00000+0  49198-3 0  9995
2 40091  47.0035  95.2072 0002737 237.6929 122.3692 14.57235769545386
ORBCOMM FM114           
1 41179U 15081A   24289.19521985  .00003231  00000+0  74458-3 0  9991
2 41179  47.0036   3.2968 0003128 296.0629  63.9934 14.57243518468776
ORBCOMM FM119           
1 41180U 15081B   24288.69131267  .00001972  00000+0  46930-3 0  9991
2 41180  46.9993 274.8998 0001674 341.2041  18.8782 14.57212849469901
ORBCOMM FM105           
1 41181U 15081C   24289.17733665  .00001438  00000+0  45567-3 0  9998
2 41181  47.0011 254.0925 0002474 298.2899  61.7732 14.44734663465420
ORBCOMM FM110           
1 41182U 15081D   24289.17154488  .00003369  00000+0  77491-3 0  9995
2 41182  47.0024   2.7930 0000204  95.2162 264.8746 14.57230780468773
ORBCOMM FM118           
1 41183U 15081E   24288.60108112  .00002932  00000+0  67935-3 0  9993
2 41183  47.0048   5.8293 0000570 114.7372 245.3573 14.57236620468616
ORBCOMM FM112           
1 41184U 15081F   24288.66890318  .00001879  00000+0  44894-3 0  9994
2 41184  46.9979 274.2025 0002244 331.3776  28.6985 14.57203001469840
ORBCOMM FM113           
1 41185U 15081G   24289.40023379  .00002412  00000+0  56602-3 0  9997
2 41185  47.0007 271.0445 0001824 350.5454   9.5396 14.57193797470009
