<?xml version="1.0" encoding="UTF-8"?>
<ndm xmlns:xsi="http://www.w3.org/2001/XMLSchema-instance" xsi:noNamespaceSchemaLocation="https://sanaregistry.org/r/ndmxml_unqualified/ndmxml-2.0.0-master-2.0.xsd">
<omm id="CCSDS_OMM_VERS" version="2.0">
<header><CREATION_DATE/><ORIGINATOR/></header><body><segment><metadata><OBJECT_NAME>ORBCOMM FM103</OBJECT_NAME><OBJECT_ID>2014-040F</OBJECT_ID><CENTER_NAME>EARTH</CENTER_NAME><REF_FRAME>TEME</REF_FRAME><TIME_SYSTEM>UTC</TIME_SYSTEM><MEAN_ELEMENT_THEORY>SGP4</MEAN_ELEMENT_THEORY></metadata><data><meanElements><EPOCH>2024-10-14T23:02:14.783712</EPOCH><MEAN_MOTION>14.57235769</MEAN_MOTION><ECCENTRICITY>.0002737</ECCENTRICITY><INCLINATION>47.0035</INCLINATION><RA_OF_ASC_NODE>95.2072</RA_OF_ASC_NODE><ARG_OF_PERICENTER>237.6929</ARG_OF_PERICENTER><MEAN_ANOMALY>122.3692</MEAN_ANOMALY></meanElements><tleParameters><EPHEMERIS_TYPE>0</EPHEMERIS_TYPE><CLASSIFICATION_TYPE>U</CLASSIFICATION_TYPE><NORAD_CAT_ID>40091</NORAD_CAT_ID><ELEMENT_SET_NO>999</ELEMENT_SET_NO><REV_AT_EPOCH>54538</REV_AT_EPOCH><BSTAR>.49198E-3</BSTAR><MEAN_MOTION_DOT>.2077E-4</MEAN_MOTION_DOT><MEAN_MOTION_DDOT>0</MEAN_MOTION_DDOT></tleParameters></data></segment></body></omm>
<omm id="CCSDS_OMM_VERS" version="2.0">
<header><CREATION_DATE/><ORIGINATOR/></header><body><segment><metadata><OBJECT_NAME>ORBCOMM FM114</OBJECT_NAME><OBJECT_ID>2015-081A</OBJECT_ID><CENTER_NAME>EARTH</CENTER_NAME><REF_FRAME>TEME</REF_FRAME><TIME_SYSTEM>UTC</TIME_SYSTEM><MEAN_ELEMENT_THEORY>SGP4</MEAN_ELEMENT_THEORY></metadata><data><meanElements><EPOCH>2024-10-15T04:41:06.995040</EPOCH><MEAN_MOTION>14.57243518</MEAN_MOTION><ECCENTRICITY>.0003128</ECCENTRICITY><INCLINATION>47.0036</INCLINATION><RA_OF_ASC_NODE>3.2968</RA_OF_ASC_NODE><ARG_OF_PERICENTER>296.0629</ARG_OF_PERICENTER><MEAN_ANOMALY>63.9934</MEAN_ANOMALY></meanElements><tleParameters><EPHEMERIS_TYPE>0</EPHEMERIS_TYPE><CLASSIFICATION_TYPE>U</CLASSIFICATION_TYPE><NORAD_CAT_ID>41179</NORAD_CAT_ID><ELEMENT_SET_NO>999</ELEMENT_SET_NO><REV_AT_EPOCH>46877</REV_AT_EPOCH><BSTAR>.74458E-3</BSTAR><MEAN_MOTION_DOT>.3231E-4</MEAN_MOTION_DOT><MEAN_MOTION_DDOT>0</MEAN_MOTION_DDOT></tleParameters></data></segment></body></omm>
<omm id="CCSDS_OMM_VERS" version="2.0">
<header><CREATION_DATE/><ORIGINATOR/></header><body><segment><metadata><OBJECT_NAME>ORBCOMM FM119</OBJECT_NAME><OBJECT_ID>2015-081B</OBJECT_ID><CENTER_NAME>EARTH</CENTER_NAME><REF_FRAME>TEME</REF_FRAME><TIME_SYSTEM>UTC</TIME_SYSTEM><MEAN_ELEMENT_THEORY>SGP4</MEAN_ELEMENT_THEORY></metadata><data><meanElements><EPOCH>2024-10-14T16:35:29.414688</EPOCH><MEAN_MOTION>14.57212849</MEAN_MOTION><ECCENTRICITY>.0001674</ECCENTRICITY><INCLINATION>46.9993</INCLINATION><RA_OF_ASC_NODE>274.8998</RA_OF_ASC_NODE><ARG_OF_PERICENTER>341.2041</ARG_OF_PERICENTER><MEAN_ANOMALY>18.8782</MEAN_ANOMALY></meanElements><tleParameters><EPHEMERIS_TYPE>0</EPHEMERIS_TYPE><CLASSIFICATION_TYPE>U</CLASSIFICATION_TYPE><NORAD_CAT_ID>41180</NORAD_CAT_ID><ELEMENT_SET_NO>999</ELEMENT_SET_NO><REV_AT_EPOCH>46990</REV_AT_EPOCH><BSTAR>.4693E-3</BSTAR><MEAN_MOTION_DOT>.1972E-4</MEAN_MOTION_DOT><MEAN_MOTION_DDOT>0</MEAN_MOTION_DDOT></tleParameters></data></segment></body></omm>
<omm id="CCSDS_OMM_VERS" version="2.0">
<header><CREATION_DATE/><ORIGINATOR/></header><body><segment><metadata><OBJECT_NAME>ORBCOMM FM105</OBJECT_NAME><OBJECT_ID>2015-081C</OBJECT_ID><CENTER_NAME>EARTH</CENTER_NAME><REF_FRAME>TEME</REF_FRAME><TIME_SYSTEM>UTC</TIME_SYSTEM><MEAN_ELEMENT_THEORY>SGP4</MEAN_ELEMENT_THEORY></metadata><data><meanElements><EPOCH>2024-10-15T04:15:21.886560</EPOCH><MEAN_MOTION>14.44734663</MEAN_MOTION><ECCENTRICITY>.0002474</ECCENTRICITY><INCLINATION>47.0011</INCLINATION><RA_OF_ASC_NODE>254.0925</RA_OF_ASC_NODE><ARG_OF_PERICENTER>298.2899</ARG_OF_PERICENTER><MEAN_ANOMALY>61.7732</MEAN_ANOMALY></meanElements><tleParameters><EPHEMERIS_TYPE>0</EPHEMERIS_TYPE><CLASSIFICATION_TYPE>U</CLASSIFICATION_TYPE><NORAD_CAT_ID>41181</NORAD_CAT_ID><ELEMENT_SET_NO>999</ELEMENT_SET_NO><REV_AT_EPOCH>46542</REV_AT_EPOCH><BSTAR>.45567E-3</BSTAR><MEAN_MOTION_DOT>.1438E-4</MEAN_MOTION_DOT><MEAN_MOTION_DDOT>0</MEAN_MOTION_DDOT></tleParameters></data></segment></body></omm>
<omm id="CCSDS_OMM_VERS" version="2.0">
<header><CREATION_DATE/><ORIGINATOR/></header><body><segment><metadata><OBJECT_NAME>ORBCOMM FM110</OBJECT_NAME><OBJECT_ID>2015-081D</OBJECT_ID><CENTER_NAME>EARTH</CENTER_NAME><REF_FRAME>TEME</REF_FRAME><TIME_SYSTEM>UTC</TIME_SYSTEM><MEAN_ELEMENT_THEORY>SGP4</MEAN_ELEMENT_THEORY></metadata><data><meanElements><EPOCH>2024-10-15T04:07:01.477632</EPOCH><MEAN_MOTION>14.57230780</MEAN_MOTION><ECCENTRICITY>.0000204</ECCENTRICITY><INCLINATION>47.0024</INCLINATION><RA_OF_ASC_NODE>2.7930</RA_OF_ASC_NODE><ARG_OF_PERICENTER>95.2162</ARG_OF_PERICENTER><MEAN_ANOMALY>264.8746</MEAN_ANOMALY></meanElements><tleParameters><EPHEMERIS_TYPE>0</EPHEMERIS_TYPE><CLASSIFICATION_TYPE>U</CLASSIFICATION_TYPE><NORAD_CAT_ID>41182</NORAD_CAT_ID><ELEMENT_SET_NO>999</ELEMENT_SET_NO><REV_AT_EPOCH>46877</REV_AT_EPOCH><BSTAR>.77491E-3</BSTAR><MEAN_MOTION_DOT>.3369E-4</MEAN_MOTION_DOT><MEAN_MOTION_DDOT>0</MEAN_MOTION_DDOT></tleParameters></data></segment></body></omm>
<omm id="CCSDS_OMM_VERS" version="2.0">
<header><CREATION_DATE/><ORIGINATOR/></header><body><segment><metadata><OBJECT_NAME>ORBCOMM FM118</OBJECT_NAME><OBJECT_ID>2015-081E</OBJECT_ID><CENTER_NAME>EARTH</CENTER_NAME><REF_FRAME>TEME</REF_FRAME><TIME_SYSTEM>UTC</TIME_SYSTEM><MEAN_ELEMENT_THEORY>SGP4</MEAN_ELEMENT_THEORY></metadata><data><meanElements><EPOCH>2024-10-14T14:25:33.408768</EPOCH><MEAN_MOTION>14.57236620</MEAN_MOTION><ECCENTRICITY>.000057</ECCENTRICITY><INCLINATION>47.0048</INCLINATION><RA_OF_ASC_NODE>5.8293</RA_OF_ASC_NODE><ARG_OF_PERICENTER>114.7372</ARG_OF_PERICENTER><MEAN_ANOMALY>245.3573</MEAN_ANOMALY></meanElements><tleParameters><EPHEMERIS_TYPE>0</EPHEMERIS_TYPE><CLASSIFICATION_TYPE>U</CLASSIFICATION_TYPE><NORAD_CAT_ID>41183</NORAD_CAT_ID><ELEMENT_SET_NO>999</ELEMENT_SET_NO><REV_AT_EPOCH>46861</REV_AT_EPOCH><BSTAR>.67935E-3</BSTAR><MEAN_MOTION_DOT>.2932E-4</MEAN_MOTION_DOT><MEAN_MOTION_DDOT>0</MEAN_MOTION_DDOT></tleParameters></data></segment></body></omm>
<omm id="CCSDS_OMM_VERS" version="2.0">
<header><CREATION_DATE/><ORIGINATOR/></header><body><segment><metadata><OBJECT_NAME>ORBCOMM FM112</OBJECT_NAME><OBJECT_ID>2015-081F</OBJECT_ID><CENTER_NAME>EARTH</CENTER_NAME><REF_FRAME>TEME</REF_FRAME><TIME_SYSTEM>UTC</TIME_SYSTEM><MEAN_ELEMENT_THEORY>SGP4</MEAN_ELEMENT_THEORY></metadata><data><meanElements><EPOCH>2024-10-14T16:03:13.234752</EPOCH><MEAN_MOTION>14.57203001</MEAN_MOTION><ECCENTRICITY>.0002244</ECCENTRICITY><INCLINATION>46.9979</INCLINATION><RA_OF_ASC_NODE>274.2025</RA_OF_ASC_NODE><ARG_OF_PERICENTER>331.3776</ARG_OF_PERICENTER><MEAN_ANOMALY>28.6985</MEAN_ANOMALY></meanElements><tleParameters><EPHEMERIS_TYPE>0</EPHEMERIS_TYPE><CLASSIFICATION_TYPE>U</CLASSIFICATION_TYPE><NORAD_CAT_ID>41184</NORAD_CAT_ID><ELEMENT_SET_NO>999</ELEMENT_SET_NO><REV_AT_EPOCH>46984</REV_AT_EPOCH><BSTAR>.44894E-3</BSTAR><MEAN_MOTION_DOT>.1879E-4</MEAN_MOTION_DOT><MEAN_MOTION_DDOT>0</MEAN_MOTION_DDOT></tleParameters></data></segment></body></omm>
<omm id="CCSDS_OMM_VERS" version="2.0">
<header><CREATION_DATE/><ORIGINATOR/></header><body><segment><metadata><OBJECT_NAME>ORBCOMM FM113</OBJECT_NAME><OBJECT_ID>2015-081G</OBJECT_ID><CENTER_NAME>EARTH</CENTER_NAME><REF_FRAME>TEME</REF_FRAME><TIME_SYSTEM>UTC</TIME_SYSTEM><MEAN_ELEMENT_THEORY>SGP4</MEAN_ELEMENT_THEORY></metadata><data><meanElements><EPOCH>2024-10-15T09:36:20.199456</EPOCH><MEAN_MOTION>14.57193797</MEAN_MOTION><ECCENTRICITY>.0001824</ECCENTRICITY><INCLINATION>47.0007</INCLINATION><RA_OF_ASC_NODE>271.0445</RA_OF_ASC_NODE><ARG_OF_PERICENTER>350.5454</ARG_OF_PERICENTER><MEAN_ANOMALY>9.5396</MEAN_ANOMALY></meanElements><tleParameters><EPHEMERIS_TYPE>0</EPHEMERIS_TYPE><CLASSIFICATION_TYPE>U</CLASSIFICATION_TYPE><NORAD_CAT_ID>41185</NORAD_CAT_ID><ELEMENT_SET_NO>999</ELEMENT_SET_NO><REV_AT_EPOCH>47000</REV_AT_EPOCH><BSTAR>.56602E-3</BSTAR><MEAN_MOTION_DOT>.2412E-4</MEAN_MOTION_DOT><MEAN_MOTION_DDOT>0</MEAN_MOTION_DDOT></tleParameters></data></segment></body></omm>

</ndm>
